EUTELSAT 8 WEST B       
1 40875U 15039B   25336.71547395 -.00000045  00000+0  00000+0 0  9990
2 40875   0.0660 345.7072 0004133 268.5591  67.1264  1.00271544 37687
EUTELSAT 9B             
1 41310U 16005A   25336.77822618  .00000082  00000+0  00000+0 0  9999
2 41310   0.0639  74.7940 0004873 189.4665  96.7651  1.00271120 36143
EUTELSAT 65 WEST A      
1 41382U 16014A   25336.34744012 -.00000256  00000+0  00000+0 0  9996
2 41382   0.0509 341.0284 0002719 276.9507 233.3555  1.00271105 35563
EUTELSAT 117 WEST B     
1 41589U 16038B   25336.44280980  .00000009  00000+0  00000+0 0  9996
2 41589   0.0102 144.9746 0000202 219.6495 109.3395  1.00268530 34694
EUTELSAT 172B           
1 42741U 17029B   25336.39766854  .00000015  00000+0  00000+0 0  9998
2 42741   0.0165 133.0464 0000223 122.4326 131.1829  1.00270978 31755
EUTELSAT 7C             
1 44334U 19034B   25336.57572152  .00000069  00000+0  00000+0 0  9991
2 44334   0.0771 180.8650 0003462  53.2233  51.8439  1.00271324  4864
EUTELSAT 5 WEST B       
1 44624U 19067A   25336.78378131 -.00000022  00000+0  00000+0 0  9993
2 44624   0.0722 327.0579 0003670 285.6861  96.3127  1.00272705 22464
EUTELSAT KONNECT        
1 45027U 20005B   25336.77822618  .00000070  00000+0  00000+0 0  9990
2 45027   0.0677 100.3111 0001657 171.7802  87.1432  1.00272455 22355
